     2              NAVIGATION DATA                         RINEX VERSION / TYPE
comb_nav.pl         SOPAC      Sun Jan  2 04:00:02 UTC 2005 PGM / RUN BY / DATE 
                 BROADCAST EPHEMERIS FILE                   COMMENT             
                                                            END OF HEADER       
10 05  1  1  5 59 44.0 5.643954500556D-05 6.821210263297D-13 0.000000000000D+00
    1.500000000000D+02 7.387500000000D+01 3.955164748487D-09-2.614489870763D+00
    3.669410943985D-06 6.284822360612D-03 9.631738066673D-06 5.153579814911D+03
    5.399840000000D+05-7.078051567078D-08-1.925993763931D+00-1.098960638046D-07
    9.788216091518D-01 2.065000000000D+02 2.862837639536D-01-7.723893159725D-09
    7.643175511796D-11 1.000000000000D+00 1.303000000000D+03 0.000000000000D+00
    0.000000000000D+00 0.000000000000D+00-2.328306436539D-09 1.500000000000D+02
    5.331900000000D+05
10 05  1  1  8  0  0.0 5.644466727972D-05 6.821210263297D-13 0.000000000000D+00
    1.510000000000D+02 6.312500000000D+01 3.984451682692D-09-1.562321079138D+00
    2.991408109665D-06 6.286364863627D-03 8.421018719673D-06 5.153574266434D+03
    5.472000000000D+05 1.862645149231D-08-1.926049939985D+00-9.499490261078D-08
    9.788223493883D-01 2.248125000000D+02 2.866851623420D-01-7.754965882600D-09
    1.278624688422D-10 1.000000000000D+00 1.303000000000D+03 0.000000000000D+00
    0.000000000000D+00 0.000000000000D+00-2.328306436539D-09 1.510000000000D+02
    5.455200000000D+05
10 05  1  1 10  0  0.0 5.644978955388D-05 6.821210263297D-13 0.000000000000D+00
    1.520000000000D+02 4.800000000000D+01 3.894805091408D-09-5.118033631901D-01
    2.589076757431D-06 6.287560914643D-03 8.258968591690D-06 5.153578300476D+03
    5.544000000000D+05 1.192092895508D-07-1.926105571834D+00 2.793967723846D-08
    9.788225220127D-01 2.277500000000D+02 2.864035447601D-01-7.871042146213D-09
    3.785871982478D-11 1.000000000000D+00 1.303000000000D+03 0.000000000000D+00
    0.000000000000D+00 0.000000000000D+00-2.328306436539D-09 1.520000000000D+02
    5.472000000000D+05
10 05  1  1 12  0  0.0 5.645491182804D-05 6.821210263297D-13 0.000000000000D+00
    1.530000000000D+02 4.206250000000D+01 3.906234138903D-09 5.384595299836D-01
    2.320855855942D-06 6.286595948040D-03 8.514150977135D-06 5.153576469421D+03
    5.616000000000D+05 6.332993507385D-08-1.926162085822D+00 1.192092895508D-07
    9.788228175221D-01 2.233125000000D+02 2.863757068920D-01-7.842826685212D-09
    6.071681481333D-12 1.000000000000D+00 1.303000000000D+03 0.000000000000D+00
    1.000000000000D+00 0.000000000000D+00-2.328306436539D-09 1.530000000000D+02
    5.544000000000D+05
10 05  1  1 14  0  0.0 5.645956844091D-05 6.821210263297D-13 0.000000000000D+00
    1.540000000000D+02 4.543750000000D+01 3.848017428229D-09 1.588334248085D+00
    2.542510628700D-06 6.287520984188D-03 9.549781680107D-06 5.153581073761D+03
    5.688000000000D+05-5.960464477539D-08-1.926217754244D+00 2.793967723846D-08
    9.788224898285D-01 2.059062500000D+02 2.867352877671D-01-7.799253441640D-09
   -1.075044779930D-10 1.000000000000D+00 1.303000000000D+03 0.000000000000D+00
    1.000000000000D+00 0.000000000000D+00-2.328306436539D-09 1.540000000000D+02
    5.622600000000D+05
10 05  1  1 16  0  0.0 5.646469071507D-05 6.821210263297D-13 0.000000000000D+00
    1.490000000000D+02 5.284375000000D+01 3.907305612105D-09 2.638686228581D+00
    2.691522240639D-06 6.288402597420D-03 9.864568710327D-06 5.153579030991D+03
    5.760000000000D+05-8.009374141693D-08-1.926273990278D+00-4.284083843231D-08
    9.788220129172D-01 1.996250000000D+02 2.866165470954D-01-7.746394096979D-09
   -7.571743964957D-11 1.000000000000D+00 1.303000000000D+03 0.000000000000D+00
    1.000000000000D+00 0.000000000000D+00-2.328306436539D-09 4.050000000000D+02
    5.726400000000D+05
10 05  1  1 18  0  0.0 5.646981298923D-05 6.821210263297D-13 0.000000000000D+00
    1.500000000000D+02 5.562500000000D+01 3.876232889230D-09-2.594253343991D+00
    2.793967723846D-06 6.287963129580D-03 9.780749678612D-06 5.153579832077D+03
    5.832000000000D+05-2.793967723846D-08-1.926329685032D+00-7.450580596924D-08
    9.788215623384D-01 2.018750000000D+02 2.866049022674D-01-7.732822103079D-09
   -6.464554988949D-11 1.000000000000D+00 1.303000000000D+03 0.000000000000D+00
    1.000000000000D+00 0.000000000000D+00-2.328306436539D-09 4.060000000000D+02
    5.760000000000D+05
10 05  1  1 20  0  0.0 5.647493526340D-05 6.821210263297D-13 0.000000000000D+00
    1.510000000000D+02 4.671875000000D+01 3.971951161995D-09-1.544430335654D+00
    2.345070242882D-06 6.289382698014D-03 8.786097168922D-06 5.153574277878D+03
    5.904000000000D+05 2.421438694000D-08-1.926385564114D+00-7.823109626770D-08
    9.788211907572D-01 2.211875000000D+02 2.870176660664D-01-7.750679989789D-09
   -4.500187450871D-11 1.000000000000D+00 1.303000000000D+03 0.000000000000D+00
    1.000000000000D+00 0.000000000000D+00-2.328306436539D-09 4.070000000000D+02
    5.832000000000D+05
10 05  1  1 22  0  0.0 5.648005753756D-05 6.821210263297D-13 0.000000000000D+00
    1.520000000000D+02 3.378125000000D+01 3.979451474413D-09-4.939611622537D-01
    1.715496182442D-06 6.290553254075D-03 8.514150977135D-06 5.153577791214D+03
    5.976000000000D+05 1.154839992523D-07-1.926441169630D+00 5.587935447693D-08
    9.788200818653D-01 2.260000000000D+02 2.867851176827D-01-7.874970881289D-09
   -1.357199389945D-10 1.000000000000D+00 1.303000000000D+03 0.000000000000D+00
    2.000000000000D+00 0.000000000000D+00-2.328306436539D-09 4.080000000000D+02
    5.904000000000D+05
10 05  1  1 23 59 44.0 5.647400394082D-05 6.821210263297D-13 0.000000000000D+00
    1.740000000000D+02 2.653125000000D+01 4.095170580292D-09 5.539854897993D-01
    1.531094312668D-06 6.289585377090D-03 8.482486009598D-06 5.153575944901D+03
    6.047840000000D+05 4.097819328308D-08-1.926497945481D+00 7.636845111847D-08
    9.788189320117D-01 2.226250000000D+02 2.867408293008D-01-7.909258023772D-09
   -1.442917246152D-10 1.000000000000D+00 1.303000000000D+03 0.000000000000D+00
    0.000000000000D+00 0.000000000000D+00-2.328306436539D-09 1.740000000000D+02
    6.031800000000D+05
10 05  1  2  0  0  0.0 5.648517981172D-05 6.821210263297D-13 0.000000000000D+00
    1.530000000000D+02 2.653125000000D+01 4.094813422558D-09 5.563209741445D-01
    1.531094312668D-06 6.289580138400D-03 8.484348654747D-06 5.153575927734D+03
    0.000000000000D+00 4.097819328308D-08-2.046913323413D+00 7.450580596924D-08
    9.788189334746D-01 2.226250000000D+02 2.867393049401D-01-7.909258023772D-09
   -1.439345668810D-10 1.000000000000D+00 1.304000000000D+03 0.000000000000D+00
    4.000000000000D+00 0.000000000000D+00-2.328306436539D-09 4.090000000000D+02
   -7.182000000000D+03 4.000000000000D+00
11  5  1  1  0  0  0.0  .180577393621D-03  .352429196937D-11  .000000000000D+00
     .940000000000D+02 -.681250000000D+01  .602167939855D-08 -.212382648281D+01
    -.504776835442D-06  .385277264286D-02  .737607479095D-05  .515367340469D+04
     .518400000000D+06  .000000000000D+00 -.310527257285D+01 -.782310962677D-07
     .904057157495D+00  .208250000000D+03  .154804181518D+00 -.872322050001D-08
    -.306798493674D-09  .100000000000D+01  .130300000000D+04  .000000000000D+00
     .000000000000D+00  .000000000000D+00 -.121071934700D-07  .350000000000D+03
     .511200000000D+06
11 05  1  1  2  0  0.0 1.806030049920D-04 3.524291969370D-12 0.000000000000D+00
    9.500000000000D+01-6.406250000000D+00 6.016679190267D-09-1.073843636046D+00
   -4.507601261139D-07 3.852864843793D-03 6.929039955139D-06 5.153671873093D+03
    5.256000000000D+05 4.656612873077D-08-3.105335443217D+00-5.774199962616D-08
    9.040550172460D-01 2.140625000000D+02 1.550137811062D-01-8.737506809373D-09
   -3.014411276615D-10 1.000000000000D+00 1.303000000000D+03 0.000000000000D+00
    0.000000000000D+00 0.000000000000D+00-1.210719347000D-08 3.510000000000D+02
    5.184300000000D+05
11 05  1  1  4  0  0.0 1.806281507015D-04 3.524291969370D-12 0.000000000000D+00
    9.600000000000D+01-1.050000000000D+01 5.991678148873D-09-2.353079153477D-02
   -5.625188350677D-07 3.853925503790D-03 6.610527634621D-06 5.153674053192D+03
    5.328000000000D+05 4.284083843231D-08-3.105398407211D+00 1.117587089539D-08
    9.040525068785D-01 2.214375000000D+02 1.548930684209D-01-8.797152150984D-09
   -3.267993267894D-10 1.000000000000D+00 1.303000000000D+03 0.000000000000D+00
    1.000000000000D+00 0.000000000000D+00-1.210719347000D-08 3.520000000000D+02
    5.256000000000D+05
11 05  1  1  6  0  0.0 1.806532964110D-04 3.524291969370D-12 0.000000000000D+00
    9.700000000000D+01-1.687500000000D+00 5.937033015541D-09 1.026511737900D+00
   -1.098960638046D-07 3.855152637698D-03 6.407499313354D-06 5.153676624298D+03
    5.400000000000D+05 1.862645149231D-08-3.105461549681D+00 3.539025783539D-08
    9.040501793759D-01 2.251562500000D+02 1.550406695405D-01-8.773222582793D-09
   -3.450143712334D-10 1.000000000000D+00 1.303000000000D+03 0.000000000000D+00
    1.000000000000D+00 0.000000000000D+00-1.210719347000D-08 3.530000000000D+02
    5.328000000000D+05
11 05  1  1  8  0  0.0 1.806789077818D-04 3.524291969370D-12 0.000000000000D+00
    9.800000000000D+01-1.250000000000D-01 5.926675441250D-09 2.076737718725D+00
   -2.980232238770D-08 3.855239599943D-03 6.346032023430D-06 5.153676362991D+03
    5.472000000000D+05-1.490116119385D-08-3.105524798945D+00 4.842877388000D-08
    9.040477494690D-01 2.257812500000D+02 1.550040146651D-01-8.761793535298D-09
   -3.257278535868D-10 1.000000000000D+00 1.303000000000D+03 0.000000000000D+00
    2.800000000000D+00 0.000000000000D+00-1.210719347000D-08 3.540000000000D+02
    5.450580000000D+05 4.000000000000D+00
